{"type":"Feature","id":"484","properties":{"name":"Mexico"},"geometry":{"type":"MultiPolygon","coordinates":[[[[-117.129,32.533],[-116.841,32.554],[-116.557,32.577],[-116.269,32.598],[-115.984,32.618],[-115.696,32.641],[-115.412,32.662],[-115.124,32.683],[-114.839,32.705],[-114.724,32.716],[-114.789,32.565],[-114.836,32.509],[-114.361,32.36],[-113.889,32.212],[-113.414,32.065],[-112.939,31.917],[-112.463,31.768],[-111.992,31.62],[-111.517,31.473],[-111.041,31.325],[-110.689,31.325],[-110.336,31.325],[-109.983,31.327],[-109.626,31.327],[-109.274,31.327],[-108.921,31.329],[-108.568,31.329],[-108.215,31.33],[-108.215,31.441],[-108.212,31.554],[-108.212,31.667],[-108.212,31.78],[-107.992,31.778],[-107.772,31.776],[-107.553,31.776],[-107.333,31.775],[-107.114,31.773],[-106.894,31.773],[-106.674,31.771],[-106.455,31.769],[-106.444,31.768],[-106.437,31.764],[-106.347,31.679],[-106.257,31.544],[-106.149,31.45],[-106.023,31.398],[-105.814,31.242],[-105.515,30.981],[-105.274,30.808],[-105.098,30.721],[-104.979,30.646],[-104.918,30.584],[-104.835,30.448],[-104.68,30.134],[-104.68,29.99],[-104.622,29.855],[-104.504,29.678],[-104.399,29.573],[-104.313,29.542],[-104.216,29.48],[-104.111,29.386],[-103.989,29.323],[-103.852,29.29],[-103.665,29.207],[-103.424,29.07],[-103.258,29.001],[-103.168,28.999],[-103.089,29.042],[-103.024,29.133],[-102.956,29.19],[-102.891,29.216],[-102.866,29.257],[-102.876,29.315],[-102.833,29.443],[-102.732,29.645],[-102.614,29.752],[-102.477,29.77],[-102.387,29.806],[-102.344,29.865],[-102.268,29.872],[-102.164,29.825],[-101.991,29.796],[-101.753,29.782],[-101.613,29.787],[-101.57,29.81],[-101.548,29.808],[-101.544,29.784],[-101.508,29.773],[-101.44,29.777],[-101.379,29.742],[-101.303,29.634],[-101.04,29.461],[-101.015,29.4],[-100.925,29.315],[-100.756,29.183],[-100.659,29.068],[-100.637,28.973],[-100.551,28.822],[-100.4,28.613],[-100.331,28.502],[-100.349,28.487],[-100.335,28.428],[-100.295,28.327],[-100.22,28.242],[-100.112,28.172],[-100.0,28.047],[-99.888,27.867],[-99.755,27.73],[-99.597,27.636],[-99.507,27.548],[-99.485,27.468],[-99.485,27.398],[-99.51,27.341],[-99.5,27.285],[-99.456,27.233],[-99.442,27.171],[-99.456,27.082],[-99.456,27.056],[-99.442,27.037],[-99.302,26.884],[-99.23,26.761],[-99.172,26.567],[-99.172,26.565],[-99.107,26.447],[-99.014,26.398],[-98.873,26.381],[-98.765,26.341],[-98.693,26.277],[-98.6,26.239],[-98.484,26.225],[-98.376,26.183],[-98.276,26.112],[-98.081,26.065],[-97.8,26.042],[-97.588,25.983],[-97.44,25.891],[-97.376,25.872],[-97.358,25.871],[-97.35,25.884],[-97.34,25.91],[-97.282,25.942],[-97.145,25.961],[-97.163,25.754],[-97.224,25.586],[-97.422,25.233],[-97.509,25.015],[-97.667,24.39],[-97.718,23.98],[-97.728,23.787],[-97.743,23.761],[-97.728,23.732],[-97.764,23.306],[-97.746,22.942],[-97.757,22.886],[-97.818,22.777],[-97.858,22.624],[-97.84,22.557],[-97.844,22.51],[-97.782,22.279],[-97.764,22.105],[-97.584,21.808],[-97.484,21.704],[-97.361,21.616],[-97.314,21.564],[-97.336,21.439],[-97.386,21.374],[-97.408,21.272],[-97.433,21.357],[-97.426,21.465],[-97.386,21.524],[-97.383,21.567],[-97.458,21.612],[-97.592,21.761],[-97.754,22.027],[-97.638,21.603],[-97.599,21.536],[-97.566,21.508],[-97.516,21.478],[-97.502,21.432],[-97.502,21.399],[-97.358,21.103],[-97.196,20.8],[-97.185,20.716],[-97.12,20.616],[-96.71,20.189],[-96.458,19.869],[-96.368,19.567],[-96.314,19.473],[-96.288,19.343],[-96.123,19.199],[-96.072,19.105],[-95.986,19.053],[-95.914,18.897],[-95.777,18.805],[-95.81,18.803],[-95.928,18.85],[-95.921,18.819],[-95.82,18.755],[-95.626,18.69],[-95.579,18.69],[-95.655,18.723],[-95.72,18.769],[-95.698,18.776],[-95.561,18.72],[-95.183,18.701],[-95.014,18.571],[-94.798,18.515],[-94.683,18.348],[-94.546,18.175],[-94.46,18.166],[-94.391,18.166],[-94.19,18.196],[-93.873,18.305],[-93.765,18.357],[-93.552,18.43],[-93.228,18.444],[-93.128,18.423],[-92.886,18.468],[-92.768,18.524],[-92.728,18.574],[-92.71,18.612],[-92.487,18.664],[-92.44,18.675],[-92.213,18.685],[-92.102,18.704],[-91.976,18.716],[-91.882,18.638],[-91.882,18.6],[-91.943,18.564],[-91.914,18.529],[-91.803,18.47],[-91.601,18.447],[-91.533,18.456],[-91.439,18.541],[-91.274,18.624],[-91.277,18.72],[-91.31,18.774],[-91.356,18.777],[-91.367,18.807],[-91.335,18.876],[-91.342,18.9],[-91.446,18.833],[-91.468,18.833],[-91.457,18.864],[-91.436,18.89],[-91.137,19.038],[-91.058,19.098],[-90.957,19.152],[-90.741,19.352],[-90.694,19.73],[-90.651,19.796],[-90.507,19.913],[-90.492,19.947],[-90.482,20.025],[-90.485,20.223],[-90.478,20.38],[-90.485,20.557],[-90.46,20.713],[-90.435,20.758],[-90.352,21.01],[-90.183,21.121],[-89.887,21.253],[-89.819,21.275],[-88.879,21.414],[-88.746,21.449],[-88.584,21.539],[-88.465,21.569],[-88.249,21.567],[-88.185,21.579],[-88.17,21.591],[-88.17,21.603],[-88.131,21.616],[-88.008,21.603],[-87.774,21.55],[-87.688,21.536],[-87.479,21.473],[-87.252,21.447],[-87.216,21.458],[-87.187,21.477],[-87.166,21.515],[-87.187,21.546],[-87.209,21.544],[-87.249,21.527],[-87.295,21.525],[-87.385,21.551],[-87.367,21.574],[-87.277,21.572],[-87.216,21.583],[-87.13,21.621],[-87.036,21.593],[-86.91,21.463],[-86.824,21.421],[-86.817,21.234],[-86.802,21.201],[-86.773,21.15],[-86.817,21.005],[-86.863,20.885],[-86.925,20.786],[-87.058,20.631],[-87.22,20.508],[-87.421,20.232],[-87.468,20.102],[-87.465,19.999],[-87.432,19.899],[-87.443,19.862],[-87.465,19.824],[-87.508,19.828],[-87.587,19.779],[-87.688,19.637],[-87.691,19.593],[-87.645,19.553],[-87.587,19.572],[-87.511,19.574],[-87.468,19.586],[-87.425,19.583],[-87.436,19.501],[-87.483,19.444],[-87.511,19.425],[-87.565,19.416],[-87.627,19.383],[-87.659,19.352],[-87.655,19.258],[-87.623,19.251],[-87.551,19.321],[-87.508,19.317],[-87.501,19.288],[-87.594,19.046],[-87.652,18.798],[-87.735,18.656],[-87.763,18.446],[-87.803,18.357],[-87.853,18.269],[-87.882,18.274],[-87.958,18.44],[-88.041,18.484],[-88.055,18.524],[-88.012,18.727],[-88.033,18.84],[-88.073,18.835],[-88.127,18.774],[-88.195,18.72],[-88.195,18.642],[-88.275,18.515],[-88.296,18.472],[-88.372,18.482],[-88.462,18.477],[-88.523,18.446],[-88.588,18.291],[-88.743,18.072],[-88.807,17.965],[-88.858,17.928],[-88.897,17.914],[-88.944,17.94],[-89.049,18.0],[-89.135,17.97],[-89.164,17.902],[-89.16,17.815],[-89.373,17.815],[-89.729,17.815],[-90.183,17.815],[-90.622,17.815],[-90.989,17.817],[-90.989,17.621],[-90.993,17.447],[-90.993,17.253],[-91.194,17.255],[-91.41,17.257],[-91.392,17.236],[-91.32,17.199],[-91.223,17.112],[-91.112,16.977],[-90.975,16.868],[-90.816,16.788],[-90.712,16.708],[-90.662,16.632],[-90.633,16.566],[-90.633,16.51],[-90.575,16.468],[-90.471,16.439],[-90.417,16.39],[-90.417,16.352],[-90.449,16.262],[-90.46,16.163],[-90.446,16.073],[-90.521,16.071],[-90.705,16.071],[-90.978,16.071],[-91.234,16.071],[-91.436,16.071],[-91.738,16.071],[-91.821,15.932],[-91.958,15.703],[-92.084,15.496],[-92.188,15.321],[-92.206,15.276],[-92.206,15.238],[-92.076,15.074],[-92.098,15.027],[-92.145,15.001],[-92.159,14.963],[-92.156,14.901],[-92.188,14.819],[-92.177,14.762],[-92.159,14.691],[-92.188,14.63],[-92.21,14.571],[-92.235,14.545],[-92.264,14.567],[-92.53,14.84],[-92.811,15.139],[-92.919,15.236],[-93.023,15.31],[-93.167,15.448],[-93.542,15.75],[-93.736,15.889],[-93.916,16.053],[-94.078,16.145],[-94.24,16.204],[-94.312,16.239],[-94.373,16.284],[-94.409,16.288],[-94.427,16.227],[-94.37,16.196],[-94.301,16.17],[-94.251,16.168],[-94.193,16.145],[-94.028,16.062],[-94.002,16.019],[-94.47,16.187],[-94.661,16.203],[-94.683,16.229],[-94.586,16.316],[-94.618,16.347],[-94.65,16.352],[-94.751,16.291],[-94.791,16.288],[-94.798,16.328],[-94.794,16.364],[-94.859,16.42],[-94.899,16.418],[-94.935,16.38],[-95.025,16.307],[-95.021,16.277],[-94.845,16.246],[-94.787,16.229],[-94.798,16.21],[-94.949,16.21],[-95.133,16.177],[-95.464,15.975],[-95.774,15.889],[-96.213,15.692],[-96.407,15.684],[-96.512,15.652],[-96.807,15.727],[-97.185,15.909],[-97.754,15.967],[-98.139,16.206],[-98.52,16.305],[-98.762,16.534],[-98.909,16.545],[-99.003,16.581],[-99.348,16.665],[-99.69,16.72],[-100.025,16.92],[-100.245,16.984],[-100.432,17.064],[-100.846,17.201],[-101.001,17.276],[-101.148,17.394],[-101.386,17.513],[-101.487,17.616],[-101.602,17.652],[-101.764,17.842],[-101.847,17.923],[-101.919,17.96],[-101.994,17.973],[-102.218,17.958],[-102.545,18.041],[-102.7,18.062],[-103.017,18.187],[-103.442,18.326],[-103.582,18.484],[-103.697,18.633],[-103.913,18.829],[-104.046,18.913],[-104.277,19.012],[-104.406,19.091],[-104.604,19.152],[-104.939,19.31],[-105.044,19.444],[-105.108,19.562],[-105.285,19.706],[-105.483,19.977],[-105.533,20.076],[-105.569,20.229],[-105.616,20.317],[-105.67,20.385],[-105.641,20.435],[-105.544,20.498],[-105.378,20.512],[-105.26,20.579],[-105.245,20.635],[-105.252,20.668],[-105.328,20.753],[-105.422,20.775],[-105.494,20.777],[-105.512,20.808],[-105.458,20.843],[-105.393,20.926],[-105.303,21.027],[-105.238,21.119],[-105.224,21.249],[-105.234,21.381],[-105.209,21.491],[-105.432,21.619],[-105.458,21.673],[-105.526,21.819],[-105.648,21.989],[-105.645,22.327],[-105.792,22.628],[-105.944,22.777],[-106.023,22.829],[-106.235,23.062],[-106.401,23.195],[-106.566,23.449],[-106.728,23.61],[-106.937,23.881],[-107.085,24.016],[-107.765,24.471],[-107.726,24.471],[-107.528,24.36],[-107.495,24.369],[-107.488,24.424],[-107.513,24.489],[-107.549,24.504],[-107.603,24.49],[-107.675,24.504],[-107.711,24.525],[-107.816,24.539],[-107.952,24.615],[-108.01,24.694],[-108.014,24.784],[-108.208,24.975],[-108.28,25.082],[-108.244,25.074],[-108.194,25.03],[-108.14,25.018],[-108.078,25.018],[-108.035,25.036],[-108.05,25.067],[-108.093,25.093],[-108.374,25.194],[-108.467,25.265],[-108.698,25.383],[-108.752,25.424],[-108.788,25.537],[-108.845,25.542],[-108.892,25.511],[-109.029,25.48],[-109.065,25.516],[-109.068,25.551],[-108.971,25.589],[-108.885,25.695],[-108.885,25.733],[-108.935,25.69],[-109.007,25.641],[-109.083,25.615],[-109.198,25.593],[-109.256,25.608],[-109.306,25.633],[-109.385,25.726],[-109.425,26.032],[-109.353,26.138],[-109.27,26.244],[-109.198,26.305],[-109.158,26.258],[-109.115,26.252],[-109.148,26.306],[-109.216,26.355],[-109.241,26.405],[-109.245,26.45],[-109.277,26.534],[-109.482,26.711],[-109.677,26.697],[-109.756,26.702],[-109.828,26.77],[-109.889,26.883],[-109.922,26.978],[-109.925,27.028],[-109.943,27.079],[-110.278,27.162],[-110.379,27.233],[-110.476,27.322],[-110.519,27.395],[-110.559,27.45],[-110.591,27.544],[-110.617,27.653],[-110.577,27.796],[-110.53,27.863],[-110.761,27.916],[-110.847,27.917],[-110.923,27.89],[-110.987,27.926],[-111.121,27.968],[-111.283,28.115],[-111.473,28.384],[-111.679,28.471],[-111.747,28.565],[-111.833,28.648],[-111.905,28.752],[-111.92,28.797],[-111.941,28.823],[-112.046,28.896],[-112.161,29.02],[-112.193,29.119],[-112.222,29.27],[-112.301,29.323],[-112.377,29.348],[-112.395,29.419],[-112.388,29.461],[-112.413,29.537],[-112.571,29.719],[-112.654,29.87],[-112.697,29.917],[-112.737,29.985],[-112.759,30.125],[-112.823,30.301],[-112.953,30.509],[-113.057,30.652],[-113.111,30.794],[-113.086,30.938],[-113.104,31.026],[-113.119,31.047],[-113.108,31.077],[-113.072,31.061],[-113.043,31.087],[-113.047,31.179],[-113.083,31.207],[-113.187,31.237],[-113.23,31.256],[-113.482,31.294],[-113.623,31.346],[-113.633,31.467],[-113.702,31.523],[-113.759,31.558],[-113.947,31.629],[-113.979,31.592],[-114.004,31.525],[-114.08,31.511],[-114.148,31.507],[-114.263,31.554],[-114.548,31.733],[-114.609,31.763],[-114.699,31.778],[-114.742,31.806],[-114.933,31.901],[-114.893,31.851],[-114.839,31.799],[-114.789,31.648],[-114.847,31.539],[-114.883,31.157],[-114.843,31.08],[-114.76,30.959],[-114.703,30.764],[-114.685,30.622],[-114.634,30.507],[-114.649,30.238],[-114.631,30.157],[-114.551,30.023],[-114.404,29.896],[-114.371,29.83],[-114.181,29.735],[-114.062,29.61],[-113.828,29.44],[-113.756,29.367],[-113.547,29.103],[-113.54,29.023],[-113.5,28.926],[-113.381,28.947],[-113.327,28.874],[-113.335,28.839],[-113.32,28.813],[-113.259,28.818],[-113.205,28.799],[-113.093,28.511],[-113.032,28.473],[-112.957,28.455],[-112.87,28.424],[-112.867,28.351],[-112.87,28.292],[-112.795,28.207],[-112.809,28.093],[-112.748,27.995],[-112.759,27.9],[-112.733,27.825],[-112.553,27.657],[-112.33,27.523],[-112.283,27.348],[-112.19,27.186],[-112.1,27.147],[-112.003,27.079],[-112.017,27.009],[-112.01,26.968],[-111.884,26.841],[-111.862,26.678],[-111.754,26.572],[-111.722,26.565],[-111.7,26.581],[-111.779,26.686],[-111.815,26.756],[-111.823,26.865],[-111.794,26.879],[-111.571,26.707],[-111.545,26.579],[-111.47,26.506],[-111.466,26.409],[-111.419,26.35],[-111.405,26.265],[-111.333,26.126],[-111.329,25.931],[-111.293,25.789],[-111.149,25.572],[-111.034,25.527],[-111.013,25.421],[-110.894,25.145],[-110.757,24.994],[-110.689,24.867],[-110.678,24.789],[-110.728,24.671],[-110.735,24.589],[-110.66,24.341],[-110.548,24.214],[-110.422,24.183],[-110.401,24.166],[-110.411,24.131],[-110.368,24.1],[-110.321,24.14],[-110.296,24.195],[-110.321,24.26],[-110.325,24.306],[-110.303,24.339],[-110.264,24.345],[-110.023,24.174],[-109.983,24.109],[-109.893,24.034],[-109.81,23.938],[-109.778,23.865],[-109.709,23.803],[-109.677,23.662],[-109.511,23.598],[-109.421,23.48],[-109.414,23.405],[-109.457,23.214],[-109.497,23.161],[-109.63,23.079],[-109.727,22.982],[-109.824,22.923],[-109.922,22.886],[-110.005,22.893],[-110.087,23.006],[-110.181,23.341],[-110.246,23.412],[-110.289,23.518],[-110.361,23.605],[-110.631,23.737],[-110.764,23.878],[-110.897,23.97],[-111.038,24.105],[-111.419,24.329],[-111.578,24.444],[-111.682,24.556],[-111.751,24.555],[-111.801,24.543],[-111.823,24.574],[-111.826,24.631],[-111.848,24.669],[-112.071,24.839],[-112.118,24.935],[-112.129,25.042],[-112.078,25.324],[-112.057,25.489],[-112.071,25.574],[-112.093,25.584],[-112.114,25.631],[-112.121,25.766],[-112.175,25.912],[-112.377,26.214],[-112.525,26.273],[-112.658,26.317],[-113.021,26.584],[-113.119,26.716],[-113.144,26.792],[-113.155,26.947],[-113.205,26.857],[-113.273,26.791],[-113.425,26.796],[-113.597,26.721],[-113.702,26.791],[-113.756,26.87],[-113.842,26.966],[-113.936,26.985],[-113.997,26.989],[-114.109,27.107],[-114.202,27.143],[-114.332,27.159],[-114.447,27.218],[-114.479,27.284],[-114.497,27.376],[-114.541,27.431],[-114.717,27.539],[-114.857,27.659],[-114.994,27.737],[-115.034,27.799],[-115.037,27.843],[-114.825,27.83],[-114.569,27.784],[-114.447,27.798],[-114.371,27.841],[-114.299,27.872],[-114.289,27.839],[-114.303,27.775],[-114.231,27.718],[-114.137,27.671],[-114.069,27.676],[-114.134,27.726],[-114.177,27.83],[-114.159,27.869],[-114.159,27.919],[-114.253,27.909],[-114.267,27.935],[-114.184,28.013],[-114.094,28.221],[-114.047,28.426],[-114.145,28.605],[-114.31,28.73],[-114.663,29.094],[-114.875,29.282],[-114.937,29.351],[-114.994,29.384],[-115.167,29.428],[-115.311,29.532],[-115.567,29.679],[-115.675,29.756],[-115.75,29.936],[-115.808,29.961],[-115.79,30.084],[-115.815,30.304],[-115.858,30.36],[-115.995,30.414],[-116.027,30.563],[-116.035,30.705],[-116.063,30.804],[-116.297,30.971],[-116.308,31.051],[-116.308,31.127],[-116.333,31.204],[-116.459,31.362],[-116.611,31.499],[-116.661,31.565],[-116.668,31.698],[-116.722,31.735],[-116.701,31.743],[-116.654,31.74],[-116.625,31.757],[-116.621,31.851],[-116.848,31.997],[-116.913,32.198],[-117.035,32.304],[-117.064,32.344],[-117.129,32.533]]],[[[-86.939,20.303],[-86.993,20.272],[-87.018,20.383],[-86.979,20.489],[-86.928,20.551],[-86.827,20.558],[-86.763,20.579],[-86.755,20.551],[-86.809,20.468],[-86.939,20.303]]],[[[-106.502,21.61],[-106.53,21.529],[-106.606,21.562],[-106.635,21.614],[-106.638,21.697],[-106.599,21.713],[-106.538,21.676],[-106.523,21.652],[-106.502,21.61]]],[[[-110.915,18.741],[-110.977,18.72],[-111.063,18.782],[-111.041,18.829],[-110.991,18.862],[-110.941,18.802],[-110.915,18.741]]],[[[-110.566,25.004],[-110.537,24.891],[-110.591,24.909],[-110.656,24.97],[-110.703,25.046],[-110.699,25.081],[-110.689,25.088],[-110.595,25.042],[-110.566,25.004]]],[[[-113.155,29.053],[-113.162,29.035],[-113.266,29.096],[-113.497,29.308],[-113.579,29.414],[-113.594,29.462],[-113.587,29.573],[-113.507,29.56],[-113.417,29.487],[-113.374,29.417],[-113.374,29.339],[-113.201,29.303],[-113.176,29.133],[-113.155,29.053]]],[[[-115.171,28.07],[-115.185,28.037],[-115.354,28.105],[-115.261,28.221],[-115.275,28.343],[-115.232,28.369],[-115.196,28.329],[-115.149,28.172],[-115.171,28.07]]],[[[-112.204,29.006],[-112.28,28.77],[-112.355,28.773],[-112.514,28.848],[-112.532,28.895],[-112.471,29.167],[-112.424,29.204],[-112.283,29.24],[-112.262,29.207],[-112.247,29.126],[-112.204,29.006]]],[[[-118.241,28.942],[-118.285,28.903],[-118.4,29.112],[-118.4,29.162],[-118.367,29.188],[-118.313,29.183],[-118.313,29.131],[-118.267,29.086],[-118.249,29.044],[-118.241,28.942]]],[[[-86.712,21.239],[-86.698,21.19],[-86.712,21.197],[-86.737,21.234],[-86.752,21.279],[-86.737,21.281],[-86.727,21.265],[-86.712,21.239]]],[[[-91.684,18.677],[-91.796,18.654],[-91.817,18.677],[-91.59,18.777],[-91.551,18.774],[-91.536,18.76],[-91.655,18.711],[-91.684,18.677]]],[[[-109.806,24.152],[-109.828,24.147],[-109.878,24.201],[-109.9,24.331],[-109.889,24.345],[-109.792,24.183],[-109.796,24.164],[-109.806,24.152]]],[[[-114.695,31.705],[-114.728,31.702],[-114.789,31.747],[-114.785,31.79],[-114.771,31.794],[-114.71,31.757],[-114.688,31.724],[-114.695,31.705]]],[[[-111.099,26.02],[-111.088,25.985],[-111.095,25.975],[-111.135,25.999],[-111.203,25.85],[-111.225,25.836],[-111.182,26.041],[-111.139,26.07],[-111.092,26.075],[-111.099,26.02]]],[[[-111.7,24.393],[-111.711,24.346],[-112.013,24.534],[-111.941,24.551],[-111.859,24.537],[-111.7,24.393]]],[[[-112.057,24.546],[-112.078,24.534],[-112.165,24.65],[-112.175,24.73],[-112.211,24.763],[-112.298,24.789],[-112.222,24.95],[-112.161,25.286],[-112.132,25.225],[-112.197,24.886],[-112.193,24.841],[-112.165,24.799],[-112.129,24.73],[-112.125,24.654],[-112.067,24.584],[-112.057,24.546]]]]}}